STARLINK-6043           
1 56464U 23064S   23164.91667824 -.00921935  00000+0 -13268-1 0  9990
2 56464  69.9993 149.3194 0003193 266.4551 244.1105 15.58445500  1306
STARLINK-6054           
1 56465U 23064T   23164.92794751  .00005731  00000+0  49383-4 0  9997
2 56465  70.0001 148.2700 0003064 266.2267  93.8578 15.69931279  5762
STARLINK-6053           
1 56466U 23064U   23165.25001157 -.00863831  00000+0 -12678-1 0  9995
2 56466  69.9994 148.3965 0003194 271.7491 309.5077 15.57762560  5795
STARLINK-6055           
1 56467U 23064V   23165.37722176  .00000384  00000+0  49662-5 0  9991
2 56467  69.9978 147.8773 0003212 260.7967  99.2866 15.69923701  5817
STARLINK-5998           
1 56468U 23064W   23164.91667824 -.00914095  00000+0 -13137-1 0  9998
2 56468  69.9994 149.3147 0003214 266.1342 248.4000 15.58459719  1306
STARLINK-5518           
1 56469U 23064X   23164.29434767  .00001673  00000+0  15679-4 0  9991
2 56469  69.9981 150.9218 0003399 262.1181  97.9629 15.69931539  5294
STARLINK-5523           
1 56470U 23064Y   23164.93130834  .00001082  00000+0  10766-4 0  9998
2 56470  69.9972 149.1303 0003243 263.2129  96.8698 15.69924693  5740
STARLINK-5521           
1 56471U 23064Z   23165.37701395  .00001134  00000+0  11198-4 0  9992
2 56471  69.9996 147.8780 0002140 278.5358  81.5595 15.69924806  5810
STARLINK-5038           
1 56472U 23064AA  23164.93109756  .00001597  00000+0  15042-4 0  9992
2 56472  69.9993 149.1297 0003051 264.4059  95.6789 15.69927180  5741
STARLINK-5486           
1 56473U 23064AB  23165.37669465 -.00000045  00000+0  13928-5 0  9990
2 56473  69.9968 147.8735 0003403 257.7022 102.3792 15.69924326  5819
STARLINK-5524           
1 56474U 23064AC  23164.93141514  .00000791  00000+0  83486-5 0  9995
2 56474  69.9963 149.1308 0003276 262.9014  97.1809 15.69922957  5743
STARLINK-5541           
1 56475U 23064AD  23164.93035919  .00001242  00000+0  12097-4 0  9998
2 56475  69.9983 149.1286 0003464 266.7326  93.3473 15.69925021  5748
STARLINK-5545           
1 56476U 23064AE  23165.37690691 -.00000099  00000+0  94731-6 0  9999
2 56476  69.9976 147.8748 0002947 244.1232 115.9660 15.69921343  5810
STARLINK-5534           
1 56477U 23064AF  23164.93025550  .00000471  00000+0  56827-5 0  9993
2 56477  69.9982 149.1251 0003061 264.7331  95.3516 15.69922372  5744
STARLINK-6041           
1 56478U 23064AG  23165.44030518  .00001333  00000+0  12855-4 0  9991
2 56478  69.9992 147.6923 0003105 262.4900  97.5943 15.69924398  5828
STARLINK-6044           
1 56479U 23064AH  23165.24841846  .00000236  00000+0  37342-5 0  9994
2 56479  69.9971 148.2272 0003224 252.8787 107.2056 15.69922022  5790
STARLINK-6214           
1 56480U 23064AJ  23165.37678990  .00000638  00000+0  70706-5 0  9995
2 56480  69.9969 147.8736 0003450 263.2679  96.8124 15.69935600  5814
STARLINK-6222           
1 56481U 23064AK  23164.93004606  .00000596  00000+0  67245-5 0  9991
2 56481  69.9969 149.1253 0003313 265.4526  94.6292 15.69921983  5740
STARLINK-6220           
1 56482U 23064AL  23164.93046477  .00000892  00000+0  91873-5 0  9997
2 56482  69.9994 149.1272 0002994 263.8747  96.2107 15.69926357  5744
STARLINK-5868           
1 56483U 23064AM  23164.92972927  .00000697  00000+0  75626-5 0  9996
2 56483  69.9970 149.1236 0003230 264.6467  95.4360 15.69921447  5748
STARLINK-6221           
1 56484U 23064AN  23164.93015136  .00000234  00000+0  37129-5 0  9991
2 56484  69.9973 149.1255 0003128 264.5991  95.4848 15.69921865  5745
STARLINK-6210           
1 56485U 23064AP  23164.92962335  .00000597  00000+0  67381-5 0  9998
2 56485  69.9971 149.1233 0003335 263.1859  96.8957 15.69923107  5745
STARLINK-6201           
1 56486U 23064AQ  23164.92993643  .00001452  00000+0  13835-4 0  9990
2 56486  69.9995 149.1245 0002855 252.9737 107.1146 15.69928010  5746
STARLINK-6196           
1 56487U 23064AR  23164.92930556  .00000902  00000+0  92727-5 0  9992
2 56487  69.9980 149.1214 0003328 261.8412  98.2407 15.69924350  5745
STARLINK-6204           
1 56488U 23064AS  23164.54726903 -.00002239  00000+0 -16909-4 0  9994
2 56488  69.9991 150.2005 0002701 228.7103 131.3860 15.69857231  5680
STARLINK-5923           
1 56489U 23064AT  23164.22831234  .00000522  00000+0  61084-5 0  9990
2 56489  69.9982 151.0917 0003271 259.6150 100.4677 15.69931432  5634
STARLINK-5873           
1 56490U 23064AU  23164.92941020  .00000460  00000+0  55988-5 0  9991
2 56490  69.9978 149.1233 0003936 256.9208 103.1548 15.69922814  5745
STARLINK-5842           
1 56491U 23064AV  23164.35563970  .00001390  00000+0  13324-4 0  9993
2 56491  69.9971 150.7319 0003479 261.8586  98.2215 15.69930645  5654
STARLINK-5846           
1 56492U 23064AW  23165.05631437  .00000843  00000+0  87801-5 0  9990
2 56492  69.9979 148.7631 0003193 260.7179  99.3656 15.69930483  5769
STARLINK-5841           
1 56493U 23064AX  23164.92835669  .00001228  00000+0  11983-4 0  9994
2 56493  69.9985 149.1167 0003200 252.4098 107.6748 15.69924698  5747
