OBJECT_NAME,OBJECT_ID,EPOCH,MEAN_MOTION,ECCENTRICITY,INCLINATION,RA_OF_ASC_NODE,ARG_OF_PERICENTER,MEAN_ANOMALY,EPHEMERIS_TYPE,CLASSIFICATION_TYPE,NORAD_CAT_ID,ELEMENT_SET_NO,REV_AT_EPOCH,BSTAR,MEAN_MOTION_DOT,MEAN_MOTION_DDOT
STARLINK-6043,2023-064S,2023-06-13T22:00:00.999936,15.58445500,.0003193,69.9993,149.3194,266.4551,244.1105,0,U,56464,999,130,-.13268E-1,-.921935E-2,0
STARLINK-6054,2023-064T,2023-06-13T22:16:14.664864,15.69931279,.0003064,70.0001,148.2700,266.2267,93.8578,0,U,56465,999,576,.49383E-4,.5731E-4,0
STARLINK-6053,2023-064U,2023-06-14T06:00:00.999648,15.57762560,.0003194,69.9994,148.3965,271.7491,309.5077,0,U,56466,999,579,-.12678E-1,-.863831E-2,0
STARLINK-6055,2023-064V,2023-06-14T09:03:11.960064,15.69923701,.0003212,69.9978,147.8773,260.7967,99.2866,0,U,56467,999,581,.49662E-5,.384E-5,0
STARLINK-5998,2023-064W,2023-06-13T22:00:00.999936,15.58459719,.0003214,69.9994,149.3147,266.1342,248.4000,0,U,56468,999,130,-.13137E-1,-.914095E-2,0
STARLINK-5518,2023-064X,2023-06-13T07:03:51.638688,15.69931539,.0003399,69.9981,150.9218,262.1181,97.9629,0,U,56469,999,529,.15679E-4,.1673E-4,0
STARLINK-5523,2023-064Y,2023-06-13T22:21:05.040576,15.69924693,.0003243,69.9972,149.1303,263.2129,96.8698,0,U,56470,999,574,.10766E-4,.1082E-4,0
STARLINK-5521,2023-064Z,2023-06-14T09:02:54.005280,15.69924806,.000214,69.9996,147.8780,278.5358,81.5595,0,U,56471,999,581,.11198E-4,.1134E-4,0
STARLINK-5038,2023-064AA,2023-06-13T22:20:46.829184,15.69927180,.0003051,69.9993,149.1297,264.4059,95.6789,0,U,56472,999,574,.15042E-4,.1597E-4,0
STARLINK-5486,2023-064AB,2023-06-14T09:02:26.417760,15.69924326,.0003403,69.9968,147.8735,257.7022,102.3792,0,U,56473,999,581,.13928E-5,-.45E-6,0
STARLINK-5524,2023-064AC,2023-06-13T22:21:14.268096,15.69922957,.0003276,69.9963,149.1308,262.9014,97.1809,0,U,56474,999,574,.83486E-5,.791E-5,0
STARLINK-5541,2023-064AD,2023-06-13T22:19:43.034016,15.69925021,.0003464,69.9983,149.1286,266.7326,93.3473,0,U,56475,999,574,.12097E-4,.1242E-4,0
STARLINK-5545,2023-064AE,2023-06-14T09:02:44.757024,15.69921343,.0002947,69.9976,147.8748,244.1232,115.9660,0,U,56476,999,581,.94731E-6,-.99E-6,0
STARLINK-5534,2023-064AF,2023-06-13T22:19:34.075200,15.69922372,.0003061,69.9982,149.1251,264.7331,95.3516,0,U,56477,999,574,.56827E-5,.471E-5,0
STARLINK-6041,2023-064AG,2023-06-14T10:34:02.367552,15.69924398,.0003105,69.9992,147.6923,262.4900,97.5943,0,U,56478,999,582,.12855E-4,.1333E-4,0
STARLINK-6044,2023-064AH,2023-06-14T05:57:43.354944,15.69922022,.0003224,69.9971,148.2272,252.8787,107.2056,0,U,56479,999,579,.37342E-5,.236E-5,0
STARLINK-6214,2023-064AJ,2023-06-14T09:02:34.647360,15.69935600,.000345,69.9969,147.8736,263.2679,96.8124,0,U,56480,999,581,.70706E-5,.638E-5,0
STARLINK-6222,2023-064AK,2023-06-13T22:19:15.979584,15.69921983,.0003313,69.9969,149.1253,265.4526,94.6292,0,U,56481,999,574,.67245E-5,.596E-5,0
STARLINK-6220,2023-064AL,2023-06-13T22:19:52.156128,15.69926357,.0002994,69.9994,149.1272,263.8747,96.2107,0,U,56482,999,574,.91873E-5,.892E-5,0
STARLINK-5868,2023-064AM,2023-06-13T22:18:48.608928,15.69921447,.000323,69.9970,149.1236,264.6467,95.4360,0,U,56483,999,574,.75626E-5,.697E-5,0
STARLINK-6221,2023-064AN,2023-06-13T22:19:25.077504,15.69921865,.0003128,69.9973,149.1255,264.5991,95.4848,0,U,56484,999,574,.37129E-5,.234E-5,0
STARLINK-6210,2023-064AP,2023-06-13T22:18:39.457440,15.69923107,.0003335,69.9971,149.1233,263.1859,96.8957,0,U,56485,999,574,.67381E-5,.597E-5,0
STARLINK-6201,2023-064AQ,2023-06-13T22:19:06.507552,15.69928010,.0002855,69.9995,149.1245,252.9737,107.1146,0,U,56486,999,574,.13835E-4,.1452E-4,0
STARLINK-6196,2023-064AR,2023-06-13T22:18:12.000384,15.69924350,.0003328,69.9980,149.1214,261.8412,98.2407,0,U,56487,999,574,.92727E-5,.902E-5,0
STARLINK-6204,2023-064AS,2023-06-13T13:08:04.044192,15.69857231,.0002701,69.9991,150.2005,228.7103,131.3860,0,U,56488,999,568,-.16909E-4,-.2239E-4,0
STARLINK-5923,2023-064AT,2023-06-13T05:28:46.186176,15.69931432,.0003271,69.9982,151.0917,259.6150,100.4677,0,U,56489,999,563,.61084E-5,.522E-5,0
STARLINK-5873,2023-064AU,2023-06-13T22:18:21.041280,15.69922814,.0003936,69.9978,149.1233,256.9208,103.1548,0,U,56490,999,574,.55988E-5,.46E-5,0
STARLINK-5842,2023-064AV,2023-06-13T08:32:07.270080,15.69930645,.0003479,69.9971,150.7319,261.8586,98.2215,0,U,56491,999,565,.13324E-4,.139E-4,0
STARLINK-5846,2023-064AW,2023-06-14T01:21:05.561568,15.69930483,.0003193,69.9979,148.7631,260.7179,99.3656,0,U,56492,999,576,.87801E-5,.843E-5,0
STARLINK-5841,2023-064AX,2023-06-13T22:16:50.018016,15.69924698,.00032,69.9985,149.1167,252.4098,107.6748,0,U,56493,999,574,.11983E-4,.1228E-4,0
